{
  "type": "FeatureCollection",
  "features": [
    {
      "type": "Feature",
      "properties": {
        "norad_id": 40118,
        "name": "GAOFEN-2",
        "group": "resource",
        "lat": 60.74761265144261,
        "lon": -105.10694224298126,
        "alt_km": 617.0943845199545,
        "timestamp": "2025-12-27T02:10:15.845157+00:00",
        "meta_object_name": "GAOFEN-2",
        "meta_object_id": "2014-049A",
        "meta_epoch": "2025-12-26T20:46:27.261120",
        "meta_mean_motion": 14.80632328,
        "meta_eccentricity": 0.0008712,
        "meta_inclination": 98.0362,
        "meta_ra_of_asc_node": 60.0572,
        "meta_arg_of_pericenter": 74.1061,
        "meta_mean_anomaly": 286.111,
        "meta_ephemeris_type": 0,
        "meta_classification_type": "U",
        "meta_norad_cat_id": 40118,
        "meta_element_set_no": 999,
        "meta_rev_at_epoch": 61373,
        "meta_bstar": 0.00013668,
        "meta_mean_motion_dot": 9.96e-06,
        "meta_mean_motion_ddot": 0,
        "tle_line1": "1 40118U 14049A   25360.86559330  .00000996  00000+0  13668-3 0  9997",
        "tle_line2": "2 40118  98.0362  60.0572 0008712  74.1061 286.1110 14.80632328613737"
      },
      "geometry": {
        "type": "Point",
        "coordinates": [
          -105.10694224298126,
          60.74761265144261
        ]
      }
    },
    {
      "type": "Feature",
      "properties": {
        "norad_id": 40143,
        "name": "YAOGAN-21",
        "group": "resource",
        "lat": 34.24718227797475,
        "lon": -131.30248454404608,
        "alt_km": 497.2472276296867,
        "timestamp": "2025-12-27T02:10:15.845168+00:00",
        "meta_object_name": "YAOGAN-21",
        "meta_object_id": "2014-053A",
        "meta_epoch": "2025-12-26T20:48:26.765280",
        "meta_mean_motion": 15.23815803,
        "meta_eccentricity": 0.0008308,
        "meta_inclination": 97.1737,
        "meta_ra_of_asc_node": 43.5647,
        "meta_arg_of_pericenter": 354.3536,
        "meta_mean_anomaly": 5.7607,
        "meta_ephemeris_type": 0,
        "meta_classification_type": "U",
        "meta_norad_cat_id": 40143,
        "meta_element_set_no": 999,
        "meta_rev_at_epoch": 62869,
        "meta_bstar": 0.00021374,
        "meta_mean_motion_dot": 5.086e-05,
        "meta_mean_motion_ddot": 0,
        "tle_line1": "1 40143U 14053A   25360.86697645  .00005086  00000+0  21374-3 0  9990",
        "tle_line2": "2 40143  97.1737  43.5647 0008308 354.3536   5.7607 15.23815803628697"
      },
      "geometry": {
        "type": "Point",
        "coordinates": [
          -131.30248454404608,
          34.24718227797475
        ]
      }
    },
    {
      "type": "Feature",
      "properties": {
        "norad_id": 40275,
        "name": "YAOGAN-22",
        "group": "resource",
        "lat": 40.33202367534846,
        "lon": 135.43768231269885,
        "alt_km": 1203.112875781665,
        "timestamp": "2025-12-27T02:10:15.845178+00:00",
        "meta_object_name": "YAOGAN-22",
        "meta_object_id": "2014-063A",
        "meta_epoch": "2025-12-26T20:29:10.891392",
        "meta_mean_motion": 13.15523311,
        "meta_eccentricity": 0.0006119,
        "meta_inclination": 100.7431,
        "meta_ra_of_asc_node": 144.4729,
        "meta_arg_of_pericenter": 214.4556,
        "meta_mean_anomaly": 145.6159,
        "meta_ephemeris_type": 0,
        "meta_classification_type": "U",
        "meta_norad_cat_id": 40275,
        "meta_element_set_no": 999,
        "meta_rev_at_epoch": 53715,
        "meta_bstar": 5.7598e-05,
        "meta_mean_motion_dot": -2.5e-07,
        "meta_mean_motion_ddot": 0,
        "tle_line1": "1 40275U 14063A   25360.85359828 -.00000025  00000+0  57598-4 0  9991",
        "tle_line2": "2 40275 100.7431 144.4729 0006119 214.4556 145.6159 13.15523311537158"
      },
      "geometry": {
        "type": "Point",
        "coordinates": [
          135.43768231269885,
          40.33202367534846
        ]
      }
    },
    {
      "type": "Feature",
      "properties": {
        "norad_id": 40298,
        "name": "ASNARO",
        "group": "resource",
        "lat": -18.53667545596672,
        "lon": 79.17102643839637,
        "alt_km": 512.4136155749857,
        "timestamp": "2025-12-27T02:10:15.845188+00:00",
        "meta_object_name": "ASNARO",
        "meta_object_id": "2014-070A",
        "meta_epoch": "2025-12-26T19:55:56.707680",
        "meta_mean_motion": 15.19781174,
        "meta_eccentricity": 0.0005655,
        "meta_inclination": 97.3629,
        "meta_ra_of_asc_node": 76.4324,
        "meta_arg_of_pericenter": 83.8916,
        "meta_mean_anomaly": 276.2963,
        "meta_ephemeris_type": 0,
        "meta_classification_type": "U",
        "meta_norad_cat_id": 40298,
        "meta_element_set_no": 999,
        "meta_rev_at_epoch": 61783,
        "meta_bstar": 0.0003947,
        "meta_mean_motion_dot": 8.387e-05,
        "meta_mean_motion_ddot": 0,
        "tle_line1": "1 40298U 14070A   25360.83051745  .00008387  00000+0  39470-3 0  9995",
        "tle_line2": "2 40298  97.3629  76.4324 0005655  83.8916 276.2963 15.19781174617837"
      },
      "geometry": {
        "type": "Point",
        "coordinates": [
          79.17102643839637,
          -18.53667545596672
        ]
      }
    },
    {
      "type": "Feature",
      "properties": {
        "norad_id": 40310,
        "name": "YAOGAN-24",
        "group": "resource",
        "lat": -52.82287112971967,
        "lon": -58.59398015959503,
        "alt_km": 656.3002367089375,
        "timestamp": "2025-12-27T02:10:15.845198+00:00",
        "meta_object_name": "YAOGAN-24",
        "meta_object_id": "2014-072A",
        "meta_epoch": "2025-12-26T20:14:14.570880",
        "meta_mean_motion": 14.7620533,
        "meta_eccentricity": 0.0015212,
        "meta_inclination": 98.1232,
        "meta_ra_of_asc_node": 132.0127,
        "meta_arg_of_pericenter": 95.8303,
        "meta_mean_anomaly": 264.4641,
        "meta_ephemeris_type": 0,
        "meta_classification_type": "U",
        "meta_norad_cat_id": 40310,
        "meta_element_set_no": 999,
        "meta_rev_at_epoch": 59829,
        "meta_bstar": 0.00013863,
        "meta_mean_motion_dot": 9.08e-06,
        "meta_mean_motion_ddot": 0,
        "tle_line1": "1 40310U 14072A   25360.84322420  .00000908  00000+0  13863-3 0  9993",
        "tle_line2": "2 40310  98.1232 132.0127 0015212  95.8303 264.4641 14.76205330598291"
      },
      "geometry": {
        "type": "Point",
        "coordinates": [
          -58.59398015959503,
          -52.82287112971967
        ]
      }
    },
    {
      "type": "Feature",
      "properties": {
        "norad_id": 40336,
        "name": "CBERS 4",
        "group": "resource",
        "lat": 35.33257303679419,
        "lon": 52.654011603246474,
        "alt_km": 770.264451470036,
        "timestamp": "2025-12-27T02:10:15.845207+00:00",
        "meta_object_name": "CBERS 4",
        "meta_object_id": "2014-079A",
        "meta_epoch": "2025-12-26T20:59:11.448384",
        "meta_mean_motion": 14.35522471,
        "meta_eccentricity": 0.0001888,
        "meta_inclination": 98.3285,
        "meta_ra_of_asc_node": 58.406,
        "meta_arg_of_pericenter": 97.2858,
        "meta_mean_anomaly": 262.8543,
        "meta_ephemeris_type": 0,
        "meta_classification_type": "U",
        "meta_norad_cat_id": 40336,
        "meta_element_set_no": 999,
        "meta_rev_at_epoch": 57923,
        "meta_bstar": 2.826e-06,
        "meta_mean_motion_dot": -3.4e-07,
        "meta_mean_motion_ddot": 0,
        "tle_line1": "1 40336U 14079A   25360.87443806 -.00000034  00000+0  28260-5 0  9993",
        "tle_line2": "2 40336  98.3285  58.4060 0001888  97.2858 262.8543 14.35522471579230"
      },
      "geometry": {
        "type": "Point",
        "coordinates": [
          52.654011603246474,
          35.33257303679419
        ]
      }
    },
    {
      "type": "Feature",
      "properties": {
        "norad_id": 40362,
        "name": "YAOGAN-26",
        "group": "resource",
        "lat": -44.68763418271201,
        "lon": 8.303389890768143,
        "alt_km": 450.96503438475884,
        "timestamp": "2025-12-27T02:10:15.845218+00:00",
        "meta_object_name": "YAOGAN-26",
        "meta_object_id": "2014-088A",
        "meta_epoch": "2025-12-26T21:41:15.285696",
        "meta_mean_motion": 15.39809157,
        "meta_eccentricity": 0.000414,
        "meta_inclination": 97.0649,
        "meta_ra_of_asc_node": 1.0764,
        "meta_arg_of_pericenter": 344.5371,
        "meta_mean_anomaly": 15.5749,
        "meta_ephemeris_type": 0,
        "meta_classification_type": "U",
        "meta_norad_cat_id": 40362,
        "meta_element_set_no": 999,
        "meta_rev_at_epoch": 61112,
        "meta_bstar": 0.00063859,
        "meta_mean_motion_dot": 0.00025297,
        "meta_mean_motion_ddot": 0,
        "tle_line1": "1 40362U 14088A   25360.90364914  .00025297  00000+0  63859-3 0  9996",
        "tle_line2": "2 40362  97.0649   1.0764 0004140 344.5371  15.5749 15.39809157611126"
      },
      "geometry": {
        "type": "Point",
        "coordinates": [
          8.303389890768143,
          -44.68763418271201
        ]
      }
    }
  ]
}